{
    "links": {
        "self": "http://www.neowsapp.com/rest/v1/neo/3620470?api_key=iIulBulltgU6a56xZRHN4H3l9WmuAYTsLGpBGhQ2"
    },
    "id": "3620470",
    "neo_reference_id": "3620470",
    "name": "(2012 XT93)",
    "designation": "2012 XT93",
    "nasa_jpl_url": "http://ssd.jpl.nasa.gov/sbdb.cgi?sstr=3620470",
    "absolute_magnitude_h": 21.8,
    "estimated_diameter": {
        "kilometers": {
            "estimated_diameter_min": 0.1160259082,
            "estimated_diameter_max": 0.2594418179
        },
        "meters": {
            "estimated_diameter_min": 116.0259082094,
            "estimated_diameter_max": 259.4418179074
        },
        "miles": {
            "estimated_diameter_min": 0.0720951346,
            "estimated_diameter_max": 0.1612096218
        },
        "feet": {
            "estimated_diameter_min": 380.6624406898,
            "estimated_diameter_max": 851.1870938635
        }
    },
    "is_potentially_hazardous_asteroid": false,
    "close_approach_data": [
        {
            "close_approach_date": "1980-12-20",
            "close_approach_date_full": "1980-Dec-20 22:19",
            "epoch_date_close_approach": 346198740000,
            "relative_velocity": {
                "kilometers_per_second": "22.6647176389",
                "kilometers_per_hour": "81592.9834999828",
                "miles_per_hour": "50698.7068864198"
            },
            "miss_distance": {
                "astronomical": "0.4754503534",
                "lunar": "184.9501874726",
                "kilometers": "71126360.159387258",
                "miles": "44195870.8132818404"
            },
            "orbiting_body": "Earth"
        },
        {
            "close_approach_date": "2005-08-21",
            "close_approach_date_full": "2005-Aug-21 19:35",
            "epoch_date_close_approach": 1124652900000,
            "relative_velocity": {
                "kilometers_per_second": "22.1313396327",
                "kilometers_per_hour": "79672.8226776757",
                "miles_per_hour": "49505.5936243591"
            },
            "miss_distance": {
                "astronomical": "0.4962471195",
                "lunar": "193.0401294855",
                "kilometers": "74237512.070835465",
                "miles": "46129050.968300817"
            },
            "orbiting_body": "Earth"
        },
        {
            "close_approach_date": "2012-10-28",
            "close_approach_date_full": "2012-Oct-28 15:41",
            "epoch_date_close_approach": 1351438860000,
            "relative_velocity": {
                "kilometers_per_second": "7.8573039468",
                "kilometers_per_hour": "28286.2942086413",
                "miles_per_hour": "17576.0031986972"
            },
            "miss_distance": {
                "astronomical": "0.1175630263",
                "lunar": "45.7320172307",
                "kilometers": "17587178.325233981",
                "miles": "10928165.8655156978"
            },
            "orbiting_body": "Earth"
        },
        {
            "close_approach_date": "2018-04-26",
            "close_approach_date_full": "2018-Apr-26 21:31",
            "epoch_date_close_approach": 1524778260000,
            "relative_velocity": {
                "kilometers_per_second": "2.4028392824",
                "kilometers_per_hour": "8650.221416462",
                "miles_per_hour": "5374.9111906899"
            },
            "miss_distance": {
                "astronomical": "1.946539484",
                "lunar": "757.203859276",
                "kilometers": "291198160.67729908",
                "miles": "180942146.646044104"
            },
            "orbiting_body": "Juptr"
        }
    ],
    "orbital_data": {
        "orbit_id": "13",
        "orbit_determination_date": "2019-08-06 05:56:30",
        "first_observation_date": "2012-12-08",
        "last_observation_date": "2013-01-10",
        "data_arc_in_days": 33,
        "observations_used": 52,
        "orbit_uncertainty": "6",
        "minimum_orbit_intersection": ".0902027",
        "jupiter_tisserand_invariant": "3.329",
        "epoch_osculation": "2459000.5",
        "eccentricity": ".5643916477374294",
        "semi_major_axis": "2.326150905938172",
        "inclination": "8.310465052981773",
        "ascending_node_longitude": "84.20070069891116",
        "orbital_period": "1295.85155809043",
        "perihelion_distance": "1.013290763249813",
        "perihelion_argument": "307.8862783077572",
        "aphelion_distance": "3.639011048626532",
        "perihelion_time": "2458815.180607719827",
        "mean_anomaly": "51.48350581078417",
        "mean_motion": ".27780959767529",
        "equinox": "J2000",
        "orbit_class": {
            "orbit_class_type": "APO",
            "orbit_class_description": "Near-Earth asteroid orbits which cross the Earth’s orbit similar to that of 1862 Apollo",
            "orbit_class_range": "a (semi-major axis) > 1.0 AU; q (perihelion) < 1.017 AU"
        }
    },
    "is_sentry_object": false
}